[Satellite]
VERSION=1.1
NAME=NOVA I
NICKNAME=NOVA I
TLE1=1 12458U 81044A   15054.88301203  .00000044  00000-0  85097-4 0  9998
TLE2=2 12458  89.9901 123.6417 0015338 171.4467 307.6658 13.22896569630513
